CCSDS_OMM_VERS = 2.0
CREATION_DATE  = 
ORIGINATOR     = 

OBJECT_NAME    = GAOFEN-14 02
OBJECT_ID      = 2025-242A
CENTER_NAME    = EARTH
REF_FRAME      = TEME
TIME_SYSTEM    = UTC
MEAN_ELEMENT_THEORY = SGP/SGP4

EPOCH          = 2025-10-26T09:39:32.886144
MEAN_MOTION    = 15.27298108
ECCENTRICITY   = .001049
INCLINATION    = 97.4386
RA_OF_ASC_NODE = 11.5885
ARG_OF_PERICENTER = 270.3575
MEAN_ANOMALY   = 89.6462

EPHEMERIS_TYPE = 0
CLASSIFICATION_TYPE = U
NORAD_CAT_ID   = 66175
ELEMENT_SET_NO = 999
REV_AT_EPOCH   = 4
BSTAR          = .11442E-3
MEAN_MOTION_DOT = .2988E-4
MEAN_MOTION_DDOT = 0

CCSDS_OMM_VERS = 2.0
CREATION_DATE  = 
ORIGINATOR     = 

OBJECT_NAME    = CZ-3B R/B
OBJECT_ID      = 2025-242B
CENTER_NAME    = EARTH
REF_FRAME      = TEME
TIME_SYSTEM    = UTC
MEAN_ELEMENT_THEORY = SGP/SGP4

EPOCH          = 2025-10-27T04:19:03.370368
MEAN_MOTION    = 15.40836648
ECCENTRICITY   = .0105417
INCLINATION    = 97.4525
RA_OF_ASC_NODE = 12.2028
ARG_OF_PERICENTER = 39.0218
MEAN_ANOMALY   = 321.8573

EPHEMERIS_TYPE = 0
CLASSIFICATION_TYPE = U
NORAD_CAT_ID   = 66176
ELEMENT_SET_NO = 999
REV_AT_EPOCH   = 16
BSTAR          = .28795E-3
MEAN_MOTION_DOT = .14329E-3
MEAN_MOTION_DDOT = 0

CCSDS_OMM_VERS = 2.0
CREATION_DATE  = 
ORIGINATOR     = 

OBJECT_NAME    = 2025-242C
OBJECT_ID      = 2025-242C
CENTER_NAME    = EARTH
REF_FRAME      = TEME
TIME_SYSTEM    = UTC
MEAN_ELEMENT_THEORY = SGP/SGP4

EPOCH          = 2025-10-26T09:41:17.179584
MEAN_MOTION    = 15.17165482
ECCENTRICITY   = .0044551
INCLINATION    = 97.6110
RA_OF_ASC_NODE = 12.4552
ARG_OF_PERICENTER = 134.5252
MEAN_ANOMALY   = 225.9635

EPHEMERIS_TYPE = 0
CLASSIFICATION_TYPE = U
NORAD_CAT_ID   = 66177
ELEMENT_SET_NO = 999
REV_AT_EPOCH   = 3
BSTAR          = .21434E-3
MEAN_MOTION_DOT = .4293E-4
MEAN_MOTION_DDOT = 0

