GAOFEN-14 02            
1 66175U 25242A   25299.40246396  .00002988  00000+0  11442-3 0  9992
2 66175  97.4386  11.5885 0010490 270.3575  89.6462 15.27298108    47
CZ-3B R/B               
1 66176U 25242B   25300.17990012  .00014329  00000+0  28795-3 0  9992
2 66176  97.4525  12.2028 0105417  39.0218 321.8573 15.40836648   167
2025-242C               
1 66177U 25242C   25299.40367106  .00004293  00000+0  21434-3 0  9990
2 66177  97.6110  12.4552 0044551 134.5252 225.9635 15.17165482    38
